NORAD_CAT_ID,OBJECT_NAME,OBJECT_TYPE,EPOCH,MEAN_MOTION,ECCENTRICITY,INCLINATION,RA_OF_ASC_NODE,ARG_OF_PERICENTER,MEAN_ANOMALY,BSTAR,MEAN_MOTION_DOT,MEAN_MOTION_DDOT,TLE_LINE0,TLE_LINE1,TLE_LINE2,SEMIMAJOR_AXIS,PERIOD,APOGEE,PERIGEE,DECAYED
53795.0,STARLINK-4742,PAYLOAD,2024-01-19 14:24:23,15.08832517,0.0001212,53.216,175.7614,84.9637,275.1494,-1.3191e-05,-4.98e-06,0.0,0 STARLINK-4742,1 53795U 22111Y   24019.60027048 -.00000498  00000-0 -13191-4 0  9991,2 53795  53.2160 175.7614 0001212  84.9637 275.1494 15.08832517 75927,6917.903,95.438,540.607,538.93,0.0
53795.0,STARLINK-4742,PAYLOAD,2024-01-19 19:10:32,15.08836189,0.0001222,53.2163,174.8682,86.1283,273.9849,1.2338e-05,-9.1e-07,0.0,0 STARLINK-4742,1 53795U 22111Y   24019.79898769 -.00000091  00000-0  12338-4 0  9997,2 53795  53.2163 174.8682 0001222  86.1283 273.9849 15.08836189 75151,6917.892,95.438,540.602,538.912,0.0
53795.0,STARLINK-4742,PAYLOAD,2024-01-19 20:45:55,15.08834471,0.0001305,53.2174,174.5717,85.7796,274.3345,3.9867e-05,3.47e-06,0.0,0 STARLINK-4742,1 53795U 22111Y   24019.86522900  .00000347  00000-0  39867-4 0  9995,2 53795  53.2174 174.5717 0001305  85.7796 274.3345 15.08834471 75962,6917.897,95.438,540.665,538.86,0.0
53795.0,STARLINK-4742,PAYLOAD,2024-01-20 14:15:09,15.08883603,0.0001079,53.218,171.301,100.025,260.0864,-0.00055743,-9.159e-05,0.0,0 STARLINK-4742,1 53795U 22111Y   24020.59385980 -.00009159  00000-0 -55743-3 0  9994,2 53795  53.2180 171.3010 0001079 100.0250 260.0864 15.08883603 76076,6917.747,95.435,540.359,538.866,0.0
53795.0,STARLINK-4742,PAYLOAD,2024-01-20 19:01:19,15.08851909,0.0001161,53.2182,170.4089,86.7779,273.3346,-2.4609e-05,-6.8e-06,0.0,0 STARLINK-4742,1 53795U 22111Y   24020.79258106 -.00000680  00000-0 -24609-4 0  9993,2 53795  53.2182 170.4089 0001161  86.7779 273.3346 15.08851909 75303,6917.844,95.437,540.512,538.906,0.0
53795.0,STARLINK-4742,PAYLOAD,2024-01-21 12:30:33,15.08839308,0.0001229,53.2168,167.1348,109.9859,250.1266,5.1308e-05,5.29e-06,0.0,0 STARLINK-4742,1 53795U 22111Y   24021.52122682  .00000529  00000-0  51308-4 0  9990,2 53795  53.2168 167.1348 0001229 109.9859 250.1266 15.08839308 75415,6917.883,95.438,540.598,538.897,0.0
53795.0,STARLINK-4742,PAYLOAD,2024-01-21 18:52:05,15.0884926,0.00012,53.2167,165.9447,114.0178,246.094,0.00011735,1.581e-05,0.0,0 STARLINK-4742,1 53795U 22111Y   24021.78617703  .00001581  00000-0  11735-3 0  9999,2 53795  53.2167 165.9447 0001200 114.0178 246.0940 15.08849260 75455,6917.852,95.437,540.547,538.887,0.0
53795.0,STARLINK-4742,PAYLOAD,2024-01-22 09:10:35,15.08836374,0.0001174,53.2182,163.2722,94.6445,265.4681,1.8451e-05,6e-08,0.0,0 STARLINK-4742,1 53795U 22111Y   24022.38235040  .00000006  00000-0  18451-4 0  9990,2 53795  53.2182 163.2722 0001174  94.6445 265.4681 15.08836374 75548,6917.891,95.438,540.569,538.944,0.0
53795.0,STARLINK-4742,PAYLOAD,2024-01-22 15:32:07,15.08845155,0.0001186,53.2157,162.0823,115.3482,244.7633,8.2378e-07,-2.75e-06,0.0,0 STARLINK-4742,1 53795U 22111Y   24022.64730348 -.00000275  00000-0  82378-6 0  9990,2 53795  53.2157 162.0823 0001186 115.3482 244.7633 15.08845155 75582,6917.865,95.437,540.55,538.909,0.0
53795.0,STARLINK-4742,PAYLOAD,2024-01-23 12:12:08,15.08831601,0.000146,53.2157,158.2207,56.4836,303.6296,-1.2103e-05,-4.81e-06,0.0,0 STARLINK-4742,1 53795U 22111Y   24023.50843720 -.00000481  00000-0 -12103-4 0  9992,2 53795  53.2157 158.2207 0001460  56.4836 303.6296 15.08831601 75714,6917.906,95.438,540.781,538.761,0.0
53795.0,STARLINK-4742,PAYLOAD,2024-01-23 15:22:54,15.08839497,0.0001551,53.2171,157.6217,73.3547,286.7615,-3.7689e-05,-8.88e-06,0.0,0 STARLINK-4742,1 53795U 22111Y   24023.64091341 -.00000888  00000-0 -37689-4 0  9998,2 53795  53.2171 157.6217 0001551  73.3547 286.7615 15.08839497 76530,6917.882,95.438,540.82,538.674,0.0
53795.0,STARLINK-4742,PAYLOAD,2024-01-24 13:38:18,15.08843047,0.0001361,53.2169,153.4584,81.8851,278.2295,4.552e-05,4.37e-06,0.0,0 STARLINK-4742,1 53795U 22111Y   24024.56826925  .00000437  00000-0  45520-4 0  9995,2 53795  53.2169 153.4584 0001361  81.8851 278.2295 15.08843047 76670,6917.871,95.437,540.678,538.795,0.0
53795.0,STARLINK-4742,PAYLOAD,2024-01-24 15:13:41,15.08847591,0.000137,53.2174,153.1602,88.0596,272.0553,3.7024e-05,3.01e-06,0.0,0 STARLINK-4742,1 53795U 22111Y   24024.63450637  .00000301  00000-0  37024-4 0  9996,2 53795  53.2174 153.1602 0001370  88.0596 272.0553 15.08847591 75888,6917.857,95.437,540.67,538.774,0.0
53795.0,STARLINK-4742,PAYLOAD,2024-01-25 11:53:42,15.08837383,0.000176,53.219,149.2983,118.131,241.986,3.9922e-05,3.47e-06,0.0,0 STARLINK-4742,1 53795U 22111Y   24025.49563398  .00000347  00000-0  39922-4 0  9999,2 53795  53.2190 149.2983 0001760 118.1310 241.9860 15.08837383 76016,6917.888,95.438,540.971,538.536,0.0
53795.0,STARLINK-4742,PAYLOAD,2024-01-25 13:29:05,15.08837668,0.000174,53.2189,149.0007,116.6628,243.4543,3.9336e-05,3.38e-06,0.0,0 STARLINK-4742,1 53795U 22111Y   24025.56187360  .00000338  00000-0  39336-4 0  9997,2 53795  53.2189 149.0007 0001740 116.6628 243.4543 15.08837668 76822,6917.888,95.438,540.956,538.549,0.0
53795.0,STARLINK-4742,PAYLOAD,2024-01-25 15:04:29,15.08839392,0.0001708,53.2187,148.7034,114.5636,245.5535,1.9501e-05,2.2e-07,0.0,0 STARLINK-4742,1 53795U 22111Y   24025.62811346  .00000022  00000-0  19501-4 0  9994,2 53795  53.2187 148.7034 0001708 114.5636 245.5535 15.08839392 76837,6917.882,95.438,540.929,538.566,0.0
53795.0,STARLINK-4742,PAYLOAD,2024-01-26 11:44:29,15.0884986,0.0001622,53.2181,144.8409,116.9714,243.1444,-2.1044e-05,-6.23e-06,0.0,0 STARLINK-4742,1 53795U 22111Y   24026.48922883 -.00000623  00000-0 -21044-4 0  9992,2 53795  53.2181 144.8409 0001622 116.9714 243.1444 15.08849860 76162,6917.85,95.437,540.837,538.593,0.0
53795.0,STARLINK-4742,PAYLOAD,2024-01-26 14:55:15,15.08825604,0.000154,53.2174,144.2387,102.3981,257.7184,0.00034594,5.22e-05,0.0,0 STARLINK-4742,1 53795U 22111Y   24026.62171131  .00005220  00000-0  34594-3 0  9999,2 53795  53.2174 144.2387 0001540 102.3981 257.7184 15.08825604 76989,6917.924,95.438,540.855,538.724,0.0
53795.0,STARLINK-4742,PAYLOAD,2024-01-27 13:10:40,15.08838774,0.0001424,53.2174,140.0767,96.7616,263.3538,3.0215e-05,1.93e-06,0.0,0 STARLINK-4742,1 53795U 22111Y   24027.54907543  .00000193  00000-0  30215-4 0  9996,2 53795  53.2174 140.0767 0001424  96.7616 263.3538 15.08838774 77122,6917.884,95.438,540.734,538.764,0.0
53795.0,STARLINK-4742,PAYLOAD,2024-01-27 14:46:03,15.08841438,0.0001427,53.2176,139.7808,92.036,268.0796,4.9461e-05,4.99e-06,0.0,0 STARLINK-4742,1 53795U 22111Y   24027.61531377  .00000499  00000-0  49461-4 0  9994,2 53795  53.2176 139.7808 0001427  92.0360 268.0796 15.08841438 77133,6917.876,95.437,540.728,538.754,0.0
53795.0,STARLINK-4742,PAYLOAD,2024-01-28 11:26:04,15.08838205,0.000145,53.2177,135.9162,100.7523,259.3632,-2.3339e-05,-6.59e-06,0.0,0 STARLINK-4742,1 53795U 22111Y   24028.47643897 -.00000659  00000-0 -23339-4 0  9996,2 53795  53.2177 135.9162 0001450 100.7523 259.3632 15.08838205 76464,6917.886,95.438,540.754,538.748,0.0
53795.0,STARLINK-4742,PAYLOAD,2024-01-28 14:36:50,15.08841662,0.0001349,53.2171,135.3214,87.8728,272.2419,-8.2852e-06,-4.2e-06,0.0,0 STARLINK-4742,1 53795U 22111Y   24028.60891725 -.00000420  00000-0 -82852-5 0  9998,2 53795  53.2171 135.3214 0001349  87.8728 272.2419 15.08841662 77288,6917.875,95.437,540.674,538.807,0.0
53795.0,STARLINK-4742,PAYLOAD,2024-01-29 11:16:51,15.08805031,0.0001617,53.2172,131.457,71.1134,289.0033,0.00063504,9.824e-05,0.0,0 STARLINK-4742,1 53795U 22111Y   24029.47004107  .00009824  00000-0  63504-3 0  9990,2 53795  53.2172 131.4570 0001617  71.1134 289.0033 15.08805031 76610,6917.987,95.44,540.971,538.734,0.0
53795.0,STARLINK-4742,PAYLOAD,2024-01-29 16:02:59,15.08852541,0.0001573,53.2175,130.5627,89.5345,270.5827,0.00014805,2.07e-05,0.0,0 STARLINK-4742,1 53795U 22111Y   24029.66874555  .00002070  00000-0  14805-3 0  9999,2 53795  53.2175 130.5627 0001573  89.5345 270.5827 15.08852541 76641,6917.842,95.437,540.795,538.619,0.0
53795.0,STARLINK-4742,PAYLOAD,2024-01-30 11:07:38,15.08836252,0.0001447,53.2171,126.996,85.9812,274.1345,2.5289e-05,1.15e-06,0.0,0 STARLINK-4742,1 53795U 22111Y   24030.46363991  .00000115  00000-0  25289-4 0  9993,2 53795  53.2171 126.9960 0001447  85.9812 274.1345 15.08836252 76764,6917.892,95.438,540.758,538.756,0.0
53795.0,STARLINK-4742,PAYLOAD,2024-01-30 12:43:01,15.08837224,0.0001462,53.217,126.6982,84.5727,275.5432,3.0917e-05,2.04e-06,0.0,0 STARLINK-4742,1 53795U 22111Y   24030.52987945  .00000204  00000-0  30917-4 0  9994,2 53795  53.2170 126.6982 0001462  84.5727 275.5432 15.08837224 77573,6917.889,95.438,540.765,538.742,0.0
53795.0,STARLINK-4742,PAYLOAD,2024-01-31 10:58:25,15.08845477,0.0001291,53.2182,122.5353,97.3165,262.7974,-3.5367e-05,-8.51e-06,0.0,0 STARLINK-4742,1 53795U 22111Y   24031.45723568 -.00000851  00000-0 -35367-4 0  9990,2 53795  53.2182 122.5353 0001291  97.3165 262.7974 15.08845477 76916,6917.864,95.437,540.622,538.836,0.0
53795.0,STARLINK-4742,PAYLOAD,2024-01-31 15:44:34,15.0885517,0.0002399,53.218,121.6413,117.4302,242.6934,-0.00010953,-2.032e-05,0.0,0 STARLINK-4742,1 53795U 22111Y   24031.65594986 -.00002032  00000-0 -10953-3 0  9998,2 53795  53.2180 121.6413 0002399 117.4302 242.6934 15.08855170 76945,6917.834,95.437,541.359,538.039,0.0
53795.0,STARLINK-4742,PAYLOAD,2024-02-01 10:49:12,15.08835536,0.0001724,53.2181,118.071,110.966,249.1517,1.4026e-05,-6.5e-07,0.0,0 STARLINK-4742,1 53795U 22111Y   24032.45084062 -.00000065  00000-0  14026-4 0  9995,2 53795  53.2181 118.0710 0001724 110.9660 249.1517 15.08835536 77069,6917.894,95.438,540.952,538.566,0.0
53795.0,STARLINK-4742,PAYLOAD,2024-02-01 12:24:35,15.08835884,0.0001604,53.218,117.7738,103.2969,256.8202,1.2241e-05,-9.3e-07,0.0,0 STARLINK-4742,1 53795U 22111Y   24032.51708113 -.00000093  00000-0  12241-4 0  9990,2 53795  53.2180 117.7738 0001604 103.2969 256.8202 15.08835884 77879,6917.893,95.438,540.868,538.648,0.0
